{"type": "FeatureCollection", "features": [ {"type": "Feature", "properties": {"norad_id": 34529, "name": "IRIDIUM 33 DEB", "group": "iridium-33-debris", "lat": -86.35351391983104, "lon": -55.110340944482125, "alt_km": 766.1275074241985, "timestamp": "2025-12-22T14:45:57.790397+00:00", "meta": {"OBJECT_NAME": "IRIDIUM 33 DEB", "OBJECT_ID": "1997-051HW", "EPOCH": "2025-12-21T09:10:35.665536", "MEAN_MOTION": 14.4062226, "ECCENTRICITY": 0.00057974, "INCLINATION": 86.3634, "RA_OF_ASC_NODE": 31.7273, "ARG_OF_PERICENTER": 151.7059, "MEAN_ANOMALY": 208.4457, "EPHEMERIS_TYPE": 0, "CLASSIFICATION_TYPE": "U", "NORAD_CAT_ID": 34529, "ELEMENT_SET_NO": 999, "REV_AT_EPOCH": 88266, "BSTAR": 9.6722833e-05, "MEAN_MOTION_DOT": 3.28e-06, "MEAN_MOTION_DDOT": 0}, "tle": {"line1": "1 34529U 97051HW  25355.38235724  .00000328  00000+0  96723-4 0  9992", "line2": "2 34529  86.3634  31.7273 0005797 151.7059 208.4457 14.40622260882661"}}, "geometry": {"type": "Point", "coordinates": [-55.110340944482125, -86.35351391983104]}}, {"type": "Feature", "properties": {"norad_id": 34538, "name": "IRIDIUM 33 DEB", "group": "iridium-33-debris", "lat": -0.09473574417992009, "lon": -178.764205127107, "alt_km": 761.8534236632231, "timestamp": "2025-12-22T14:45:57.790408+00:00", "meta": {"OBJECT_NAME": "IRIDIUM 33 DEB", "OBJECT_ID": "1997-051JF", "EPOCH": "2025-12-22T06:12:04.821696", "MEAN_MOTION": 14.42700609, "ECCENTRICITY": 0.00320413, "INCLINATION": 86.2762, "RA_OF_ASC_NODE": 1.3859, "ARG_OF_PERICENTER": 295.0641, "MEAN_ANOMALY": 192.9769, "EPHEMERIS_TYPE": 0, "CLASSIFICATION_TYPE": "U", "NORAD_CAT_ID": 34538, "ELEMENT_SET_NO": 999, "REV_AT_EPOCH": 87893, "BSTAR": 0.00089518329, "MEAN_MOTION_DOT": 3.015e-05, "MEAN_MOTION_DDOT": 0}, "tle": {"line1": "1 34538U 97051JF  25356.25838914  .00003015  00000+0  89518-3 0  9998", "line2": "2 34538  86.2762   1.3859 0032041 295.0641 192.9769 14.42700609878930"}}, "geometry": {"type": "Point", "coordinates": [-178.764205127107, -0.09473574417992009]}}, {"type": "Feature", "properties": {"norad_id": 34540, "name": "IRIDIUM 33 DEB", "group": "iridium-33-debris", "lat": -39.28264882811587, "lon": -59.93391685163652, "alt_km": 662.2379415866299, "timestamp": "2025-12-22T14:45:57.790419+00:00", "meta": {"OBJECT_NAME": "IRIDIUM 33 DEB", "OBJECT_ID": "1997-051JH", "EPOCH": "2025-12-21T19:30:48.758976", "MEAN_MOTION": 14.75487187, "ECCENTRICITY": 0.00178055, "INCLINATION": 86.3115, "RA_OF_ASC_NODE": 303.4575, "ARG_OF_PERICENTER": 128.6543, "MEAN_ANOMALY": 253.8683, "EPHEMERIS_TYPE": 0, "CLASSIFICATION_TYPE": "U", "NORAD_CAT_ID": 34540, "ELEMENT_SET_NO": 999, "REV_AT_EPOCH": 89155, "BSTAR": 0.0012465247, "MEAN_MOTION_DOT": 8.527e-05, "MEAN_MOTION_DDOT": 0}, "tle": {"line1": "1 34540U 97051JH  25355.81306434  .00008527  00000+0  12465-2 0  9998", "line2": "2 34540  86.3115 303.4575 0017805 128.6543 253.8683 14.75487187891554"}}, "geometry": {"type": "Point", "coordinates": [-59.93391685163652, -39.28264882811587]}}, {"type": "Feature", "properties": {"norad_id": 34648, "name": "IRIDIUM 33 DEB", "group": "iridium-33-debris", "lat": 5.351362689953629, "lon": -81.70301257898664, "alt_km": 870.4631192531824, "timestamp": "2025-12-22T14:45:57.790430+00:00", "meta": {"OBJECT_NAME": "IRIDIUM 33 DEB", "OBJECT_ID": "1997-051JZ", "EPOCH": "2025-12-21T18:19:39.887904", "MEAN_MOTION": 14.11736102, "ECCENTRICITY": 0.01798232, "INCLINATION": 86.3908, "RA_OF_ASC_NODE": 278.3021, "ARG_OF_PERICENTER": 270.6006, "MEAN_ANOMALY": 87.4576, "EPHEMERIS_TYPE": 0, "CLASSIFICATION_TYPE": "U", "NORAD_CAT_ID": 34648, "ELEMENT_SET_NO": 999, "REV_AT_EPOCH": 85088, "BSTAR": 0.0054657739, "MEAN_MOTION_DOT": 0.00011615, "MEAN_MOTION_DDOT": 0}, "tle": {"line1": "1 34648U 97051JZ  25355.76365611  .00011615  00000+0  54658-2 0  9995", "line2": "2 34648  86.3908 278.3021 0179823 270.6006  87.4576 14.11736102850887"}}, "geometry": {"type": "Point", "coordinates": [-81.70301257898664, 5.351362689953629]}}, {"type": "Feature", "properties": {"norad_id": 34651, "name": "IRIDIUM 33 DEB", "group": "iridium-33-debris", "lat": -28.147602074545187, "lon": -41.63077204015313, "alt_km": 727.5134577937379, "timestamp": "2025-12-22T14:45:57.790440+00:00", "meta": {"OBJECT_NAME": "IRIDIUM 33 DEB", "OBJECT_ID": "1997-051KC", "EPOCH": "2025-12-19T16:44:48.420096", "MEAN_MOTION": 14.25922062, "ECCENTRICITY": 0.01422464, "INCLINATION": 86.2827, "RA_OF_ASC_NODE": 137.6175, "ARG_OF_PERICENTER": 181.9677, "MEAN_ANOMALY": 178.0974, "EPHEMERIS_TYPE": 0, "CLASSIFICATION_TYPE": "U", "NORAD_CAT_ID": 34651, "ELEMENT_SET_NO": 999, "REV_AT_EPOCH": 85995, "BSTAR": 0.0022061693, "MEAN_MOTION_DOT": 5.865e-05, "MEAN_MOTION_DDOT": 0}, "tle": {"line1": "1 34651U 97051KC  25353.69778264  .00005865  00000+0  22062-2 0  9995", "line2": "2 34651  86.2827 137.6175 0142246 181.9677 178.0974 14.25922062859957"}}, "geometry": {"type": "Point", "coordinates": [-41.63077204015313, -28.147602074545187]}}, {"type": "Feature", "properties": {"norad_id": 34652, "name": "IRIDIUM 33 DEB", "group": "iridium-33-debris", "lat": 75.99406252219337, "lon": 140.6989922019176, "alt_km": 695.9767191431547, "timestamp": "2025-12-22T14:45:57.790450+00:00", "meta": {"OBJECT_NAME": "IRIDIUM 33 DEB", "OBJECT_ID": "1997-051KD", "EPOCH": "2025-12-21T05:29:24.538272", "MEAN_MOTION": 14.62128423, "ECCENTRICITY": 0.0025487, "INCLINATION": 86.3314, "RA_OF_ASC_NODE": 336.221, "ARG_OF_PERICENTER": 267.1492, "MEAN_ANOMALY": 103.1146, "EPHEMERIS_TYPE": 0, "CLASSIFICATION_TYPE": "U", "NORAD_CAT_ID": 34652, "ELEMENT_SET_NO": 999, "REV_AT_EPOCH": 88608, "BSTAR": 0.00068722, "MEAN_MOTION_DOT": 3.491e-05, "MEAN_MOTION_DDOT": 0}, "tle": {"line1": "1 34652U 97051KD  25355.22875623  .00003491  00000+0  68722-3 0  9991", "line2": "2 34652  86.3314 336.2210 0025487 267.1492 103.1146 14.62128423886080"}}, "geometry": {"type": "Point", "coordinates": [140.6989922019176, 75.99406252219337]}}, {"type": "Feature", "properties": {"norad_id": 34690, "name": "IRIDIUM 33 DEB", "group": "iridium-33-debris", "lat": 77.87509126516102, "lon": 49.850157112765864, "alt_km": 700.7552362446149, "timestamp": "2025-12-22T14:45:57.790461+00:00", "meta": {"OBJECT_NAME": "IRIDIUM 33 DEB", "OBJECT_ID": "1997-051KM", "EPOCH": "2025-12-21T02:14:02.861088", "MEAN_MOTION": 14.55122739, "ECCENTRICITY": 0.00098763, "INCLINATION": 86.3773, "RA_OF_ASC_NODE": 33.3605, "ARG_OF_PERICENTER": 1.7251, "MEAN_ANOMALY": 27.9675, "EPHEMERIS_TYPE": 0, "CLASSIFICATION_TYPE": "U", "NORAD_CAT_ID": 34690, "ELEMENT_SET_NO": 999, "REV_AT_EPOCH": 88216, "BSTAR": 0.00028932758, "MEAN_MOTION_DOT": 1.27e-05, "MEAN_MOTION_DDOT": 0}, "tle": {"line1": "1 34690U 97051KM  25355.09308867  .00001270  00000+0  28933-3 0  9992", "line2": "2 34690  86.3773  33.3605 0009876   1.7251  27.9675 14.55122739882164"}}, "geometry": {"type": "Point", "coordinates": [49.850157112765864, 77.87509126516102]}}, {"type": "Feature", "properties": {"norad_id": 34693, "name": "IRIDIUM 33 DEB", "group": "iridium-33-debris", "lat": -52.76311752180627, "lon": 123.78707704357457, "alt_km": 489.4374070294043, "timestamp": "2025-12-22T14:45:57.790471+00:00", "meta": {"OBJECT_NAME": "IRIDIUM 33 DEB", "OBJECT_ID": "1997-051KQ", "EPOCH": "2025-12-21T20:43:11.978976", "MEAN_MOTION": 15.30009716, "ECCENTRICITY": 0.00110937, "INCLINATION": 86.3051, "RA_OF_ASC_NODE": 299.2844, "ARG_OF_PERICENTER": 36.8807, "MEAN_ANOMALY": 16.9571, "EPHEMERIS_TYPE": 0, "CLASSIFICATION_TYPE": "U", "NORAD_CAT_ID": 34693, "ELEMENT_SET_NO": 999, "REV_AT_EPOCH": 89054, "BSTAR": 0.0049985621, "MEAN_MOTION_DOT": 0.00148002, "MEAN_MOTION_DDOT": 0}, "tle": {"line1": "1 34693U 97051KQ  25355.86333309  .00148002  00000+0  49986-2 0  9994", "line2": "2 34693  86.3051 299.2844 0011093  36.8807  16.9571 15.30009716890541"}}, "geometry": {"type": "Point", "coordinates": [123.78707704357457, -52.76311752180627]}}, {"type": "Feature", "properties": {"norad_id": 34696, "name": "IRIDIUM 33 DEB", "group": "iridium-33-debris", "lat": -40.54628095142272, "lon": -153.80052308617834, "alt_km": 678.3357660060719, "timestamp": "2025-12-22T14:45:57.790481+00:00", "meta": {"OBJECT_NAME": "IRIDIUM 33 DEB", "OBJECT_ID": "1997-051KT", "EPOCH": "2025-12-21T20:32:12.261408", "MEAN_MOTION": 14.65486354, "ECCENTRICITY": 0.00741031, "INCLINATION": 86.1829, "RA_OF_ASC_NODE": 23.2789, "ARG_OF_PERICENTER": 136.8166, "MEAN_ANOMALY": 38.2316, "EPHEMERIS_TYPE": 0, "CLASSIFICATION_TYPE": "U", "NORAD_CAT_ID": 34696, "ELEMENT_SET_NO": 999, "REV_AT_EPOCH": 86806, "BSTAR": 0.0034933077, "MEAN_MOTION_DOT": 0.0001976, "MEAN_MOTION_DDOT": 0}, "tle": {"line1": "1 34696U 97051KT  25355.85569747  .00019760  00000+0  34933-2 0  9997", "line2": "2 34696  86.1829  23.2789 0074103 136.8166  38.2316 14.65486354868068"}}, "geometry": {"type": "Point", "coordinates": [-153.80052308617834, -40.54628095142272]}}, {"type": "Feature", "properties": {"norad_id": 34765, "name": "IRIDIUM 33 DEB", "group": "iridium-33-debris", "lat": -52.27388082626747, "lon": 23.775300269548296, "alt_km": 771.4612963294567, "timestamp": "2025-12-22T14:45:57.790492+00:00", "meta": {"OBJECT_NAME": "IRIDIUM 33 DEB", "OBJECT_ID": "1997-051LJ", "EPOCH": "2025-12-21T13:03:17.424288", "MEAN_MOTION": 14.40485449, "ECCENTRICITY": 0.0016466, "INCLINATION": 86.3382, "RA_OF_ASC_NODE": 28.9833, "ARG_OF_PERICENTER": 181.3076, "MEAN_ANOMALY": 334.2319, "EPHEMERIS_TYPE": 0, "CLASSIFICATION_TYPE": "U", "NORAD_CAT_ID": 34765, "ELEMENT_SET_NO": 999, "REV_AT_EPOCH": 87740, "BSTAR": 0.00029938, "MEAN_MOTION_DOT": 9.73e-06, "MEAN_MOTION_DDOT": 0}, "tle": {"line1": "1 34765U 97051LJ  25355.54395167  .00000973  00000+0  29938-3 0  9999", "line2": "2 34765  86.3382  28.9833 0016466 181.3076 334.2319 14.40485449877403"}}, "geometry": {"type": "Point", "coordinates": [23.775300269548296, -52.27388082626747]}}]}